ONEWEB-0229             
1 48779U 21045N   25281.46411028  .00000144  00000+0  34728-3 0  9996
2 48779  87.8984 309.4237 0001730  96.2857 263.8470 13.15547876211312
ONEWEB-0228             
1 48780U 21045P   25281.49752596 -.00000103  00000+0 -30689-3 0  9998
2 48780  87.8988 309.3944 0001795  98.0158 262.1176 13.15546940211234
ONEWEB-0232             
1 48781U 21045Q   25281.77627062  .00000064  00000+0  13625-3 0  9994
2 48781  87.8989 309.3302 0001850  95.7540 264.3802 13.15548696211594
ONEWEB-0231             
1 48782U 21045R   25281.52591333  .00000159  00000+0  38805-3 0  9991
2 48782  87.8974 309.4305 0001603 102.6850 257.4459 13.15547618211258
ONEWEB-0234             
1 48783U 21045S   25281.48774361 -.00000023  00000+0 -94573-4 0  9998
2 48783  87.8985 309.4088 0002772  93.9976 266.1472 13.15547775211388
ONEWEB-0238             
1 48784U 21045T   25281.48801302 -.00000055  00000+0 -18025-3 0  9997
2 48784  87.8982 309.4039 0002214  92.6266 267.5118 13.15547413211281
ONEWEB-0240             
1 48785U 21045U   25281.50925107 -.00000395  00000+0 -10847-2 0  9991
2 48785  87.8986 309.3859 0001980 105.3600 254.7749 13.15548781211319
ONEWEB-0246             
1 48786U 21045V   25281.50371801 -.00000068  00000+0 -21468-3 0  9997
2 48786  87.8992 309.4002 0001674  96.3285 263.8036 13.15547306211183
